{
  "links" : {
    "next" : "https://api.nasa.gov/neo/rest/v1/feed?start_date=1995-08-09&end_date=1995-08-09&detailed=true&api_key=t0TVs3DtDT2H8Oy2Zy8m2eVrNsAVKAexjcZXUckd",
    "prev" : "https://api.nasa.gov/neo/rest/v1/feed?start_date=1995-08-07&end_date=1995-08-07&detailed=true&api_key=t0TVs3DtDT2H8Oy2Zy8m2eVrNsAVKAexjcZXUckd",
    "self" : "https://api.nasa.gov/neo/rest/v1/feed?start_date=1995-08-08&end_date=1995-08-08&detailed=true&api_key=t0TVs3DtDT2H8Oy2Zy8m2eVrNsAVKAexjcZXUckd"
  },
  "element_count" : 7,
  "near_earth_objects" : {
    "1995-08-08" : [ {
      "links" : {
        "self" : "https://api.nasa.gov/neo/rest/v1/neo/3662252?api_key=t0TVs3DtDT2H8Oy2Zy8m2eVrNsAVKAexjcZXUckd"
      },
      "neo_reference_id" : "3662252",
      "name" : "(2014 DH6)",
      "nasa_jpl_url" : "http://ssd.jpl.nasa.gov/sbdb.cgi?sstr=3662252",
      "absolute_magnitude_h" : 25.8,
      "estimated_diameter" : {
        "kilometers" : {
          "estimated_diameter_min" : 0.0183888672,
          "estimated_diameter_max" : 0.0411187571
        },
        "meters" : {
          "estimated_diameter_min" : 18.388867207,
          "estimated_diameter_max" : 41.1187571041
        },
        "miles" : {
          "estimated_diameter_min" : 0.0114263088,
          "estimated_diameter_max" : 0.0255500032
        },
        "feet" : {
          "estimated_diameter_min" : 60.3309310875,
          "estimated_diameter_max" : 134.9040630575
        }
      },
      "is_potentially_hazardous_asteroid" : false,
      "close_approach_data" : [ {
        "close_approach_date" : "1995-08-08",
        "epoch_date_close_approach" : 807865200000,
        "relative_velocity" : {
          "kilometers_per_second" : "19.5349282417",
          "kilometers_per_hour" : "70325.7416701877",
          "miles_per_hour" : "43697.6809839008"
        },
        "miss_distance" : {
          "astronomical" : "0.3657815359",
          "lunar" : "142.2890167236",
          "kilometers" : "54720140",
          "miles" : "34001520"
        },
        "orbiting_body" : "Earth"
      } ],
      "orbital_data" : {
        "orbit_id" : "4",
        "orbit_determination_date" : "2017-04-06 08:42:24",
        "orbit_uncertainty" : "6",
        "minimum_orbit_intersection" : ".0041285",
        "jupiter_tisserand_invariant" : "4.906",
        "epoch_osculation" : "2458000.5",
        "eccentricity" : ".3142290572731071",
        "semi_major_axis" : "1.27714625028094",
        "inclination" : "27.79521315206508",
        "ascending_node_longitude" : "334.3526039521191",
        "orbital_period" : "527.1805462948607",
        "perihelion_distance" : ".8758297880552768",
        "perihelion_argument" : "239.4568280891988",
        "aphelion_distance" : "1.678462712506604",
        "perihelion_time" : "2457812.927917964030",
        "mean_anomaly" : "128.0888492709682",
        "mean_motion" : ".6828780055147295",
        "equinox" : "J2000"
      }
    } ]
  }
}